47274,ONEWEB-0128,2020,109.72,148.0,+,87.89,Active,1,LEO,Russia,UK,Commercial,Communications,Soyuz,1 47274U 20100S   25159.69755232 -.00000272  00000+0 -79049-3 0  9992,2 47274  87.8895  64.9906 0001941  86.3199 273.8151 13.12441758215759,13.12441758,0.0001941,LEO
47275,ONEWEB-0129,2020,109.72,148.0,+,87.89,Active,1,LEO,Russia,UK,Commercial,Communications,Soyuz,1 47275U 20100T   25159.44776136 -.00000316  00000+0 -91362-3 0  9993,2 47275  87.8891  64.9856 0003113  81.6480 278.5001 13.12441283215652,13.12441283,0.0003113,LEO
47276,ONEWEB-0130,2020,109.72,148.0,+,87.89,Active,1,LEO,Russia,UK,Commercial,Communications,Soyuz,1 47276U 20100U   25159.17038785  .00000150  00000+0  38047-3 0  9990,2 47276  87.8888  65.0424 0001902  81.3411 278.7933 13.12446494215584,13.12446494,0.0001902,LEO
47277,ONEWEB-0131,2020,109.72,148.0,+,87.89,Active,1,LEO,Russia,UK,Commercial,Communications,Soyuz,1 47277U 20100V   25159.16715015 -.00000032  00000+0 -12480-3 0  9992,2 47277  87.8893  65.0682 0001842  81.5155 278.6183 13.12443950215622,13.1244395,0.0001842,LEO
47278,ONEWEB-0132,2020,109.72,148.0,+,87.89,Active,1,LEO,Russia,UK,Commercial,Communications,Soyuz,1 47278U 20100W   25159.19634512  .00000372  00000+0  99960-3 0  9991,2 47278  87.8890  65.0637 0001684  76.1520 283.9796 13.12443789215528,13.12443789,0.0001684,LEO
47279,ONEWEB-0133,2020,109.72,148.0,+,87.89,Active,1,LEO,Russia,UK,Commercial,Communications,Soyuz,1 47279U 20100X   25160.43222784  .00000089  00000+0  21219-3 0  9992,2 47279  87.8886  64.7962 0001844  83.0076 277.1262 13.12442973215844,13.12442973,0.0001844,LEO
47280,ONEWEB-0134,2020,109.72,148.0,+,87.89,Active,1,LEO,Russia,UK,Commercial,Communications,Soyuz,1 47280U 20100Y   25159.71540906  .00000296  00000+0  78858-3 0  9993,2 47280  87.8884  64.9229 0002041  85.5005 274.6357 13.12443387215725,13.12443387,0.0002041,LEO
47281,ONEWEB-0135,2020,109.72,148.0,+,87.89,Active,1,LEO,Russia,UK,Commercial,Communications,Soyuz,1 47281U 20100Z   25159.68620547 -.00000433  00000+0 -12388-2 0  9990,2 47281  87.8891  64.9651 0001952  92.7792 267.3560 13.12442672215749,13.12442672,0.0001952,LEO
